CUTE-1 (CO-55)          
1 27844U 03031E   26168.52891237  .00000222  00000+0  11503-3 0  9990
2 27844  98.6736 177.0834 0009564 176.9717 183.1521 14.24335893191721
CUBESAT XI-IV (CO-57)   
1 27848U 03031J   26167.95527530  .00000197  00000+0  10575-3 0  9991
2 27848  98.6766 176.2299 0009009 197.6805 162.4061 14.23620738191347
CUBESAT XI-V            
1 28895U 05043F   26167.38340975  .00001200  00000+0  19649-3 0  9999
2 28895  98.2985 322.9884 0013585 203.3717 156.6874 14.72629782101632
CUTE-1.7+APD II (CO-65) 
1 32785U 08021C   26168.58022875  .00003800  00000+0  24139-3 0  9998
2 32785  97.8273 150.0069 0009710  37.7715 322.4193 15.09453458985258
CANX-2                  
1 32790U 08021H   26168.42115961  .00003650  00000+0  25719-3 0  9994
2 32790  97.8639 148.2031 0011430  49.9885 310.2343 15.05620055984844
SEEDS II (CO-66)        
1 32791U 08021J   26168.52727107  .00014659  00000+0  46558-3 0  9992
2 32791  97.7515 166.4411 0001013   2.1401 357.9844 15.32761122987345
SWISSCUBE               
1 35932U 09051B   26168.30549632  .00000774  00000+0  16253-3 0  9999
2 35932  98.4035  76.1959 0005970 202.6029 157.4910 14.62481763889174
BEESAT-1                
1 35933U 09051C   26168.58880448  .00000640  00000+0  13834-3 0  9997
2 35933  98.3963  76.1188 0004244 215.3453 144.7466 14.61721012889249
ITUPSAT1                
1 35935U 09051E   26167.68937775  .00000621  00000+0  13815-3 0  9993
2 35935  98.4049  74.3980 0006243 235.8160 124.2448 14.60440072888661
TISAT 1                 
1 36799U 10035E   26167.92111728  .00017209  00000+0  56437-3 0  9992
2 36799  98.0714 114.4464 0001362 167.9890 192.1382 15.31700616867660
AEROCUBE 4.5A           
1 38767U 12048K   26167.97411804  .00429029  81714-4  10170-2 0  9994
2 38767  64.6234  27.6641 0019536 224.8957 135.0626 15.96100831372622
STRAND-1                
1 39090U 13009E   26168.40411720  .00000200  00000+0  81523-4 0  9990
2 39090  98.3921 348.6331 0007740 224.5374 135.5192 14.37163347697094
BRITE-AUSTRIA           
1 39091U 13009F   26168.41708634  .00000131  00000+0  59167-4 0  9997
2 39091  98.3994 347.8470 0009161 235.6981 124.3339 14.36542205697087
NEE-01 PEGASO           
1 39151U 13018B   26168.13162645  .00002236  00000+0  21710-3 0  9999
2 39151  98.1222 312.2794 0013099 159.5511 200.6235 14.93659532710690
POPACS 2                
1 39269U 13055E   26168.17649404  .00010961  00000+0  18529-3 0  9995
2 39269  80.9906 144.2043 0416852 193.8061 165.1479 14.91210375663219
POPACS 3                
1 39270U 13055F   26167.91331004  .00008396  00000+0  19719-3 0  9993
2 39270  81.0011 229.4846 0552172  70.8295 295.1804 14.56118366638515
ZACUBE-1 (TSHEPISOSAT)  
1 39417U 13066B   26168.47394244  .00002365  00000+0  18618-3 0  9992
2 39417  97.8080 130.8124 0040842 246.6808 113.0116 15.01189935680772
WNISAT-1                
1 39423U 13066H   26168.41697709  .00000712  00000+0  13843-3 0  9994
2 39423  97.7202 317.5569 0161981 230.8620 127.8090 14.58062523666767
TRITON-1                
1 39427U 13066M   26168.63328238  .00001136  00000+0  14171-3 0  9996
2 39427  97.8252  78.4306 0088511 232.4586 126.8562 14.81705325674150
GOMX-1                  
1 39430U 13066Q   26168.59452598  .00001519  00000+0  23255-3 0  9990
2 39430  97.6476   9.0316 0130181  76.2293 285.3363 14.69461645669975
CUBEBUG-2 (LO-74)       
1 39440U 13066AA  26168.39811620  .00003810  00000+0  35342-3 0  9990
2 39440  97.8909 117.3771 0058377  28.4148 332.0233 14.93763127677029
NEE-02 KRYSAOR          
1 39441U 13066AB  26168.34381616  .00001650  00000+0  18476-3 0  9992
2 39441  97.8894 107.5573 0067654  69.7150 291.1320 14.86618660676229
FUNCUBE-1 (AO-73)       
1 39444U 13066AE  26168.45428207  .00005112  00000+0  31861-3 0  9995
2 39444  97.8279 139.9057 0035653 199.8844 160.0997 15.09493115679706
UWE-3                   
1 39446U 13066AG  26168.41617328  .00003433  00000+0  29686-3 0  9993
2 39446  97.8697 124.4914 0047505 320.3944  39.3810 14.97025793677613
BRITE-CA1 (TORONTO)     
1 40020U 14033L   26168.58134024  .00000574  00000+0  94199-4 0  9998
2 40020  97.9740 297.5019 0077216 275.7297  83.5111 14.72677156642275
DUCHIFAT-1              
1 40021U 14033M   26168.08560661  .00086906  00000+0  89449-3 0  9998
2 40021  98.0464 227.2320 0003017 117.8101 242.3462 15.64575667655739
NANOSATC-BR1            
1 40024U 14033Q   26168.33610049  .00012879  00000+0  42640-3 0  9995
2 40024  98.0714 200.7372 0004399 161.8209 198.3188 15.31460569654007
QB50P1                  
1 40025U 14033R   26168.54551088  .00005822  00000+0  28772-3 0  9996
2 40025  98.0960 179.7168 0007822 213.7845 146.2890 15.18264690653087
QB50P2                  
1 40032U 14033Y   26168.49634505  .00005170  00000+0  27942-3 0  9998
2 40032  98.0748 165.3957 0008052 162.2116 197.9398 15.15161004652718
PERSEUS-M2              
1 40037U 14033AD  26168.59839904  .00001052  00000+0  10041-3 0  9991
2 40037  97.9963 119.1474 0010692 302.6098  57.4090 14.95508596650842
